STARLINK-36380          
1 68344U 26059Z   26090.66668981 -.01978563  00000+0 -10483-1 0  9991
2 68344  53.1592 252.5705 0000761  67.0637 229.5322 15.82936644  2578
STARLINK-37214          
1 68345U 26059AA  26090.66668981 -.01977767  00000+0 -10059-1 0  9996
2 68345  53.1593 252.5383 0000591  65.4106 246.4881 15.83790224  2577
STARLINK-37169          
1 68346U 26059AB  26090.66668981 -.01968431  00000+0 -99069-2 0  9994
2 68346  53.1592 252.5304 0000643  75.5653 240.0732 15.83992471  2570
STARLINK-37136          
1 68347U 26059AC  26090.66668981 -.01966979  00000+0 -98087-2 0  9999
2 68347  53.1593 252.5226 0000681  79.0676 240.3322 15.84180643  2570
STARLINK-37182          
1 68348U 26059AD  26090.66668981 -.01995570  00000+0 -10274-1 0  9990
2 68348  53.1593 252.5461 0000770  69.8164 238.3665 15.83565641  2571
STARLINK-37183          
1 68349U 26059AE  26090.66668981 -.01963803  00000+0 -96985-2 0  9999
2 68349  53.1593 252.5151 0000776  74.3099 248.7937 15.84374138  2579
CENTISPACE-1 OBJECT A   
1 68350U 26060A   26090.85397700  .00002063  00000+0  33565-3 0  9997
2 68350  54.9826 351.2044 0013005 316.2807  43.7161 14.74886842  1367
CENTISPACE-1 OBJECT B   
1 68351U 26060B   26090.85376853  .00002088  00000+0  33906-3 0  9990
2 68351  54.9826 351.2032 0013242 316.7104  43.2854 14.74925935  1364
CENTISPACE-1 OBJECT C   
1 68352U 26060C   26090.85264733  .00000087  00000+0  43578-4 0  9998
2 68352  54.9798 351.1972 0012500 322.0503  37.9615 14.75101089  1366
CENTISPACE-1 OBJECT D   
1 68353U 26060D   26090.51361463  .00000086  00000+0  43489-4 0  9990
2 68353  54.9893 352.5746 0013212 325.1986  34.8148 14.75128916  1317
CENTISPACE-1 OBJECT E   
1 68354U 26060E   26090.85203100  .00000084  00000+0  43120-4 0  9991
2 68354  54.9769 351.1879 0013303 323.1045  36.9038 14.75201299  1369
CENTISPACE-1 OBJECT F   
1 68355U 26060F   26090.85182000  .00000089  00000+0  43812-4 0  9990
2 68355  54.9764 351.1868 0013857 322.0355  37.9667 14.75237810  1366
